[{"OBJECT_NAME":"HELIOS 1B","OBJECT_ID":"1999-064A","EPOCH":"2026-03-14T14:58:08.498208","MEAN_MOTION":14.8772204,"ECCENTRICITY":0.00023761,"INCLINATION":98.1688,"RA_OF_ASC_NODE":336.0117,"ARG_OF_PERICENTER":68.5976,"MEAN_ANOMALY":291.5492,"EPHEMERIS_TYPE":0,"CLASSIFICATION_TYPE":"U","NORAD_CAT_ID":25977,"ELEMENT_SET_NO":999,"REV_AT_EPOCH":68599,"BSTAR":0.00024558575,"MEAN_MOTION_DOT":2.18e-5,"MEAN_MOTION_DDOT":0},{"OBJECT_NAME":"TERRA","OBJECT_ID":"1999-068A","EPOCH":"2026-03-14T15:57:40.474656","MEAN_MOTION":14.61020819,"ECCENTRICITY":0.00029962,"INCLINATION":97.9583,"RA_OF_ASC_NODE":126.9095,"ARG_OF_PERICENTER":140.3198,"MEAN_ANOMALY":19.5937,"EPHEMERIS_TYPE":0,"CLASSIFICATION_TYPE":"U","NORAD_CAT_ID":25994,"ELEMENT_SET_NO":999,"REV_AT_EPOCH":39580,"BSTAR":0.0001160804,"MEAN_MOTION_DOT":5.25e-6,"MEAN_MOTION_DDOT":0},{"OBJECT_NAME":"SL-16 R/B","OBJECT_ID":"2000-006B","EPOCH":"2026-03-14T11:07:26.850144","MEAN_MOTION":14.15824818,"ECCENTRICITY":0.0016486,"INCLINATION":71.0004,"RA_OF_ASC_NODE":87.7988,"ARG_OF_PERICENTER":183.0564,"MEAN_ANOMALY":177.0461,"EPHEMERIS_TYPE":0,"CLASSIFICATION_TYPE":"U","NORAD_CAT_ID":26070,"ELEMENT_SET_NO":999,"REV_AT_EPOCH":34923,"BSTAR":-7.5489621e-5,"MEAN_MOTION_DOT":-1.96e-6,"MEAN_MOTION_DDOT":0},{"OBJECT_NAME":"TITAN 4B R/B","OBJECT_ID":"2000-047B","EPOCH":"2026-03-14T11:12:32.284512","MEAN_MOTION":15.09616206,"ECCENTRICITY":0.00386897,"INCLINATION":67.9904,"RA_OF_ASC_NODE":27.0755,"ARG_OF_PERICENTER":29.7674,"MEAN_ANOMALY":330.5665,"EPHEMERIS_TYPE":0,"CLASSIFICATION_TYPE":"U","NORAD_CAT_ID":26474,"ELEMENT_SET_NO":999,"REV_AT_EPOCH":39363,"BSTAR":0.00036658133,"MEAN_MOTION_DOT":5.88e-5,"MEAN_MOTION_DDOT":0},{"OBJECT_NAME":"ENVISAT","OBJECT_ID":"2002-009A","EPOCH":"2026-03-14T11:45:20.155104","MEAN_MOTION":14.39038864,"ECCENTRICITY":0.00013168,"INCLINATION":98.3734,"RA_OF_ASC_NODE":26.973,"ARG_OF_PERICENTER":83.2381,"MEAN_ANOMALY":32.8787,"EPHEMERIS_TYPE":0,"CLASSIFICATION_TYPE":"U","NORAD_CAT_ID":27386,"ELEMENT_SET_NO":999,"REV_AT_EPOCH":25986,"BSTAR":5.8852957e-5,"MEAN_MOTION_DOT":1.39e-6,"MEAN_MOTION_DDOT":0},{"OBJECT_NAME":"IDEFIX & ARIANE 42P R/B","OBJECT_ID":"2002-021B","EPOCH":"2026-03-14T12:43:20.169984","MEAN_MOTION":14.31029973,"ECCENTRICITY":0.00118588,"INCLINATION":98.5873,"RA_OF_ASC_NODE":12.0787,"ARG_OF_PERICENTER":167.7958,"MEAN_ANOMALY":192.3515,"EPHEMERIS_TYPE":0,"CLASSIFICATION_TYPE":"U","NORAD_CAT_ID":27422,"ELEMENT_SET_NO":999,"REV_AT_EPOCH":24471,"BSTAR":0.0001388386,"MEAN_MOTION_DOT":3.22e-6,"MEAN_MOTION_DDOT":0},{"OBJECT_NAME":"AQUA","OBJECT_ID":"2002-022A","EPOCH":"2026-03-14T13:24:41.749056","MEAN_MOTION":14.61990486,"ECCENTRICITY":6.104e-5,"INCLINATION":98.4181,"RA_OF_ASC_NODE":41.0126,"ARG_OF_PERICENTER":99.437,"MEAN_ANOMALY":40.4397,"EPHEMERIS_TYPE":0,"CLASSIFICATION_TYPE":"U","NORAD_CAT_ID":27424,"ELEMENT_SET_NO":999,"REV_AT_EPOCH":26944,"BSTAR":0.00026064684,"MEAN_MOTION_DOT":1.257e-5,"MEAN_MOTION_DDOT":0},{"OBJECT_NAME":"CZ-4B R/B","OBJECT_ID":"2002-024C","EPOCH":"2026-03-14T14:51:36.430560","MEAN_MOTION":14.14548748,"ECCENTRICITY":0.00502443,"INCLINATION":98.8828,"RA_OF_ASC_NODE":127.0007,"ARG_OF_PERICENTER":10.2649,"MEAN_ANOMALY":150.525,"EPHEMERIS_TYPE":0,"CLASSIFICATION_TYPE":"U","NORAD_CAT_ID":27432,"ELEMENT_SET_NO":999,"REV_AT_EPOCH":22993,"BSTAR":5.3805332e-5,"MEAN_MOTION_DOT":6.0e-7,"MEAN_MOTION_DDOT":0},{"OBJECT_NAME":"MIDORI II (ADEOS-II)","OBJECT_ID":"2002-056A","EPOCH":"2026-03-14T11:51:23.089536","MEAN_MOTION":14.29289399,"ECCENTRICITY":0.00014113,"INCLINATION":98.7775,"RA_OF_ASC_NODE":32.0049,"ARG_OF_PERICENTER":36.2929,"MEAN_ANOMALY":323.8348,"EPHEMERIS_TYPE":0,"CLASSIFICATION_TYPE":"U","NORAD_CAT_ID":27597,"ELEMENT_SET_NO":999,"REV_AT_EPOCH":21098,"BSTAR":0.0001624702,"MEAN_MOTION_DOT":3.68e-6,"MEAN_MOTION_DDOT":0},{"OBJECT_NAME":"H-2A R/B","OBJECT_ID":"2002-056E","EPOCH":"2026-03-14T12:48:12.219264","MEAN_MOTION":14.33764385,"ECCENTRICITY":0.00707799,"INCLINATION":98.3209,"RA_OF_ASC_NODE":33.7148,"ARG_OF_PERICENTER":146.3358,"MEAN_ANOMALY":330.7699,"EPHEMERIS_TYPE":0,"CLASSIFICATION_TYPE":"U","NORAD_CAT_ID":27601,"ELEMENT_SET_NO":999,"REV_AT_EPOCH":21480,"BSTAR":0.00012470361,"MEAN_MOTION_DOT":3.15e-6,"MEAN_MOTION_DDOT":0},{"OBJECT_NAME":"CZ-4B R/B","OBJECT_ID":"2003-049C","EPOCH":"2026-03-14T12:59:11.317344","MEAN_MOTION":14.55025532,"ECCENTRICITY":0.00474463,"INCLINATION":98.6882,"RA_OF_ASC_NODE":68.6364,"ARG_OF_PERICENTER":215.8095,"MEAN_ANOMALY":143.9918,"EPHEMERIS_TYPE":0,"CLASSIFICATION_TYPE":"U","NORAD_CAT_ID":28059,"ELEMENT_SET_NO":999,"REV_AT_EPOCH":18730,"BSTAR":0.00011808052,"MEAN_MOTION_DOT":4.64e-6,"MEAN_MOTION_DDOT":0},{"OBJECT_NAME":"CZ-2C R/B","OBJECT_ID":"2004-012C","EPOCH":"2026-03-14T14:19:43.737600","MEAN_MOTION":15.65143192,"ECCENTRICITY":0.00129583,"INCLINATION":97.7223,"RA_OF_ASC_NODE":139.3571,"ARG_OF_PERICENTER":289.7217,"MEAN_ANOMALY":70.2644,"EPHEMERIS_TYPE":0,"CLASSIFICATION_TYPE":"U","NORAD_CAT_ID":28222,"ELEMENT_SET_NO":999,"REV_AT_EPOCH":20504,"BSTAR":0.00080874356,"MEAN_MOTION_DOT":0.00080599,"MEAN_MOTION_DDOT":0},{"OBJECT_NAME":"SL-16 R/B","OBJECT_ID":"2004-021B","EPOCH":"2026-03-14T13:09:34.479936","MEAN_MOTION":14.14595913,"ECCENTRICITY":0.00043399,"INCLINATION":70.9997,"RA_OF_ASC_NODE":222.2957,"ARG_OF_PERICENTER":2.5711,"MEAN_ANOMALY":357.5432,"EPHEMERIS_TYPE":0,"CLASSIFICATION_TYPE":"U","NORAD_CAT_ID":28353,"ELEMENT_SET_NO":999,"REV_AT_EPOCH":12352,"BSTAR":-0.00012487664,"MEAN_MOTION_DOT":-2.88e-6,"MEAN_MOTION_DDOT":0},{"OBJECT_NAME":"CZ-4B R/B","OBJECT_ID":"2004-035C","EPOCH":"2026-03-14T14:54:02.342880","MEAN_MOTION":15.29160798,"ECCENTRICITY":0.00305258,"INCLINATION":97.3499,"RA_OF_ASC_NODE":107.8047,"ARG_OF_PERICENTER":313.315,"MEAN_ANOMALY":46.5545,"EPHEMERIS_TYPE":0,"CLASSIFICATION_TYPE":"U","NORAD_CAT_ID":28415,"ELEMENT_SET_NO":999,"REV_AT_EPOCH":18066,"BSTAR":0.00039293029,"MEAN_MOTION_DOT":0.00011204,"MEAN_MOTION_DDOT":0},{"OBJECT_NAME":"CZ-2C R/B","OBJECT_ID":"2004-046B","EPOCH":"2026-03-14T14:30:06.470784","MEAN_MOTION":14.26993937,"ECCENTRICITY":0.01401485,"INCLINATION":98.1981,"RA_OF_ASC_NODE":348.2823,"ARG_OF_PERICENTER":139.9634,"MEAN_ANOMALY":221.198,"EPHEMERIS_TYPE":0,"CLASSIFICATION_TYPE":"U","NORAD_CAT_ID":28480,"ELEMENT_SET_NO":999,"REV_AT_EPOCH":10920,"BSTAR":6.7177038e-5,"MEAN_MOTION_DOT":1.41e-6,"MEAN_MOTION_DDOT":0},{"OBJECT_NAME":"ARIANE 5 R/B","OBJECT_ID":"2004-049H","EPOCH":"2026-03-14T11:35:44.730240","MEAN_MOTION":14.85275527,"ECCENTRICITY":0.00836029,"INCLINATION":98.2634,"RA_OF_ASC_NODE":242.1197,"ARG_OF_PERICENTER":336.3338,"MEAN_ANOMALY":23.4039,"EPHEMERIS_TYPE":0,"CLASSIFICATION_TYPE":"U","NORAD_CAT_ID":28499,"ELEMENT_SET_NO":999,"REV_AT_EPOCH":14650,"BSTAR":0.00010064638,"MEAN_MOTION_DOT":8.54e-6,"MEAN_MOTION_DDOT":0},{"OBJECT_NAME":"CZ-2D R/B","OBJECT_ID":"2005-024B","EPOCH":"2026-03-14T13:59:48.460992","MEAN_MOTION":15.60629466,"ECCENTRICITY":0.00050033,"INCLINATION":97.3593,"RA_OF_ASC_NODE":88.9107,"ARG_OF_PERICENTER":34.6697,"MEAN_ANOMALY":325.4885,"EPHEMERIS_TYPE":0,"CLASSIFICATION_TYPE":"U","NORAD_CAT_ID":28738,"ELEMENT_SET_NO":999,"REV_AT_EPOCH":14054,"BSTAR":0.00071029569,"MEAN_MOTION_DOT":0.0005901,"MEAN_MOTION_DDOT":0}]
